TEVEL2-6                
1 63215U 25052F   26068.64958975  .00021046  00000+0  70909-3 0  9996
2 63215  97.4016 325.0381 0004769  95.6604 264.5181 15.30760889 54861
STARLINK-34282          
1 64454U 25130S   26068.33369582  .00027848  00000+0  94858-3 0  9990
2 64454  53.1593  92.6673 0000977  84.0879 276.0233 15.30208456 40611
